COMMENT,ORIGINATOR,NORAD_CAT_ID,OBJECT_NAME,OBJECT_TYPE,CLASSIFICATION_TYPE,INTLDES,EPOCH,EPOCH_MICROSECONDS,MEAN_MOTION,ECCENTRICITY,INCLINATION,RA_OF_ASC_NODE,ARG_OF_PERICENTER,MEAN_ANOMALY,EPHEMERIS_TYPE,ELEMENT_SET_NO,REV_AT_EPOCH,BSTAR,MEAN_MOTION_DOT,MEAN_MOTION_DDOT,FILE,TLE_LINE0,TLE_LINE1,TLE_LINE2,OBJECT_ID,OBJECT_NUMBER,SEMIMAJOR_AXIS,PERIOD,APOGEE,PERIGEE,DECAYED
"GENERATED VIA SPACETRACK.ORG API","18 SPCS","55097","SPACEBEE-160","PAYLOAD","U","23001CS","2023-07-17 09:33:14","226912","15.20955495","0.0013508","97.4748","258.2546","252.0459","107.9304","0","999","2969","0.00086354","0.00019133","0","3960302","0 SPACEBEE-160","1 55097U 23001CS  23198.39808133  .00019133  00000-0  86354-3 0  9996","2 55097  97.4748 258.2546 0013508 252.0459 107.9304 15.20955495 29698","2023-001CS","55097","6881.094","94.677","512.254","493.664","0"
"GENERATED VIA SPACETRACK.ORG API","18 SPCS","55097","SPACEBEE-160","PAYLOAD","U","23001CS","2023-07-18 15:33:13","662720","15.21004911","0.0013559","97.4745","259.495","247.4268","112.5533","0","999","2988","0.00088024","0.00019534","0","3961502","0 SPACEBEE-160","1 55097U 23001CS  23199.64807480  .00019534  00000-0  88024-3 0  9990","2 55097  97.4745 259.4950 0013559 247.4268 112.5533 15.21004911 29885","2023-001CS","55097","6880.945","94.674","512.140","493.480","0"
"GENERATED VIA SPACETRACK.ORG API","18 SPCS","55097","SPACEBEE-160","PAYLOAD","U","23001CS","2023-07-19 19:58:25","713120","15.21048218","0.0013632","97.4744","260.6704","242.924","117.0605","0","999","3006","0.00079432","0.00017639","0","3962367","0 SPACEBEE-160","1 55097U 23001CS  23200.83224205  .00017639  00000-0  79432-3 0  9999","2 55097  97.4744 260.6704 0013632 242.9240 117.0605 15.21048218 30067","2023-001CS","55097","6880.815","94.672","512.059","493.300","0"
"GENERATED VIA SPACETRACK.ORG API","18 SPCS","55097","SPACEBEE-160","PAYLOAD","U","23001CS","2023-07-21 09:51:57","828672","15.21099087","0.001377","97.4738","262.2376","237.0964","122.8947","0","999","3030","0.00080237","0.00017846","0","3963478","0 SPACEBEE-160","1 55097U 23001CS  23202.41108598  .00017846  00000-0  80237-3 0  9996","2 55097  97.4738 262.2376 0013770 237.0964 122.8947 15.21099087 30304","2023-001CS","55097","6880.661","94.668","512.001","493.051","0"
"GENERATED VIA SPACETRACK.ORG API","18 SPCS","55097","SPACEBEE-160","PAYLOAD","U","23001CS","2023-07-23 21:51:33","425856","15.21190095","0.0013971","97.4736","264.7186","228.1789","131.8255","0","999","3068","0.00079172","0.00017656","0","3963756","0 SPACEBEE-160","1 55097U 23001CS  23204.91080354  .00017656  00000-0  79172-3 0  9997","2 55097  97.4736 264.7186 0013971 228.1789 131.8255 15.21190095 30681","2023-001CS","55097","6880.387","94.663","511.864","492.639","0"
"GENERATED VIA SPACETRACK.ORG API","18 SPCS","55097","SPACEBEE-160","PAYLOAD","U","23001CS","2023-07-24 21:32:23","327808","15.21226376","0.0014042","97.4737","265.6979","224.3859","135.6251","0","999","3083","0.00077863","0.00017382","0","3963759","0 SPACEBEE-160","1 55097U 23001CS  23205.89749222  .00017382  00000-0  77863-3 0  9992","2 55097  97.4737 265.6979 0014042 224.3859 135.6251 15.21226376 30835","2023-001CS","55097","6880.277","94.660","511.804","492.481","0"
"GENERATED VIA SPACETRACK.ORG API","18 SPCS","55097","SPACEBEE-160","PAYLOAD","U","23001CS","2023-07-26 03:32:03","820416","15.21273914","0.0014141","97.4737","266.9383","219.8515","140.1683","0","999","3102","0.00093619","0.00020953","0","3963761","0 SPACEBEE-160","1 55097U 23001CS  23207.14726644  .00020953  00000-0  93619-3 0  9990","2 55097  97.4737 266.9383 0014141 219.8515 140.1683 15.21273914 31028","2023-001CS","55097","6880.134","94.658","511.728","492.270","0"
"GENERATED VIA SPACETRACK.ORG API","18 SPCS","55097","SPACEBEE-160","PAYLOAD","U","23001CS","2023-07-26 03:32:03","820416","15.21273914","0.0014141","97.4737","266.9383","219.8515","140.1683","0","999","3102","0.00093619","0.00020953","0","3963971","0 SPACEBEE-160","1 55097U 23001CS  23207.14726644  .00020953  00000-0  93619-3 0  9990","2 55097  97.4737 266.9383 0014141 219.8515 140.1683 15.21273914 31028","2023-001CS","55097","6880.134","94.658","511.728","492.270","0"
"GENERATED VIA SPACETRACK.ORG API","18 SPCS","55097","SPACEBEE-160","PAYLOAD","U","23001CS","2023-07-26 16:09:48","257280","15.21294483","0.0014213","97.4737","267.4606","217.9247","142.0988","0","999","3110","0.00095463","0.00021382","0","3964647","0 SPACEBEE-160","1 55097U 23001CS  23207.67347520  .00021382  00000-0  95463-3 0  9996","2 55097  97.4737 267.4606 0014213 217.9247 142.0988 15.21294483 31105","2023-001CS","55097","6880.072","94.656","511.716","492.158","0"
"GENERATED VIA SPACETRACK.ORG API","18 SPCS","55097","SPACEBEE-160","PAYLOAD","U","23001CS","2023-07-28 02:53:32","153856","15.21349671","0.0014391","97.474","268.8965","213.0477","146.986","0","999","3132","0.00081217","0.00018203","0","3965213","0 SPACEBEE-160","1 55097U 23001CS  23209.12051104  .00018203  00000-0  81217-3 0  9998","2 55097  97.4740 268.8965 0014391 213.0477 146.9860 15.21349671 31327","2023-001CS","55097","6879.906","94.653","511.671","491.870","0"
"GENERATED VIA SPACETRACK.ORG API","18 SPCS","55097","SPACEBEE-160","PAYLOAD","U","23001CS","2023-07-28 13:56:31","602048","15.21363182","0.0014426","97.4741","269.3536","211.3688","148.6688","0","999","3139","0.0007051","0.00015796","0","3965518","0 SPACEBEE-160","1 55097U 23001CS  23209.58092132  .00015796  00000-0  70510-3 0  9992","2 55097  97.4741 269.3536 0014426 211.3688 148.6688 15.21363182 31399","2023-001CS","55097","6879.865","94.652","511.655","491.805","0"
"GENERATED VIA SPACETRACK.ORG API","18 SPCS","55097","SPACEBEE-160","PAYLOAD","U","23001CS","2023-07-29 04:08:55","937760","15.21387991","0.0014465","97.4744","269.9412","209.1462","150.8968","0","999","3148","0.00082397","0.00018491","0","3966363","0 SPACEBEE-160","1 55097U 23001CS  23210.17286965  .00018491  00000-0  82397-3 0  9999","2 55097  97.4744 269.9412 0014465 209.1462 150.8968 15.21387991 31489","2023-001CS","55097","6879.790","94.650","511.607","491.703","0"
"GENERATED VIA SPACETRACK.ORG API","18 SPCS","55097","SPACEBEE-160","PAYLOAD","U","23001CS","2023-07-30 16:27:14","959584","15.21441318","0.0014565","97.4742","271.4433","203.6824","156.3743","0","999","3171","0.00078641","0.00017671","0","3967496","0 SPACEBEE-160","1 55097U 23001CS  23211.68558981  .00017671  00000-0  78641-3 0  9992","2 55097  97.4742 271.4433 0014565 203.6824 156.3743 15.21441318 31712","2023-001CS","55097","6879.629","94.647","511.514","491.474","0"
"GENERATED VIA SPACETRACK.ORG API","18 SPCS","55097","SPACEBEE-160","PAYLOAD","U","23001CS","2023-07-31 17:42:33","111072","15.21481598","0.0014652","97.4739","272.4883","200.263","159.8026","0","999","3187","0.00081521","0.00018345","0","3968391","0 SPACEBEE-160","1 55097U 23001CS  23212.73788323  .00018345  00000-0  81521-3 0  9994","2 55097  97.4739 272.4883 0014652 200.2630 159.8026 15.21481598 31876","2023-001CS","55097","6879.508","94.645","511.453","491.293","0"
"GENERATED VIA SPACETRACK.ORG API","18 SPCS","55097","SPACEBEE-160","PAYLOAD","U","23001CS","2023-08-02 02:51:19","541088","15.21537766","0.0014828","97.4735","273.8599","195.7241","164.3536","0","999","3208","0.00094197","0.00021253","0","3969425","0 SPACEBEE-160","1 55097U 23001CS  23214.11897617  .00021253  00000-0  94197-3 0  9990","2 55097  97.4735 273.8599 0014828 195.7241 164.3536 15.21537766 32082","2023-001CS","55097","6879.339","94.641","511.404","491.003","0"
"GENERATED VIA SPACETRACK.ORG API","18 SPCS","55097","SPACEBEE-160","PAYLOAD","U","23001CS","2023-08-03 16:44:07","66464","15.21604087","0.0014946","97.473","275.4273","190.04","170.054","0","999","3232","0.00088985","0.0002011","0","3970906","0 SPACEBEE-160","1 55097U 23001CS  23215.69730401  .00020110  00000-0  88985-3 0  9990","2 55097  97.4730 275.4273 0014946 190.0400 170.0540 15.21604087 32327","2023-001CS","55097","6879.139","94.637","511.285","490.722","0"
"GENERATED VIA SPACETRACK.ORG API","18 SPCS","55097","SPACEBEE-160","PAYLOAD","U","23001CS","2023-08-05 03:27:25","752384","15.21660452","0.0015018","97.4724","276.8642","185.2695","174.8385","0","999","3254","0.00092856","0.00021026","0","3972049","0 SPACEBEE-160","1 55097U 23001CS  23217.14404806  .00021026  00000-0  92856-3 0  9998","2 55097  97.4724 276.8642 0015018 185.2695 174.8385 15.21660452 32549","2023-001CS","55097","6878.969","94.633","511.165","490.503","0"
"GENERATED VIA SPACETRACK.ORG API","18 SPCS","55097","SPACEBEE-160","PAYLOAD","U","23001CS","2023-08-06 09:26:34","886976","15.21715838","0.0015143","97.4721","278.1049","181.3932","178.7264","0","999","3273","0.00082867","0.00018783","0","3973220","0 SPACEBEE-160","1 55097U 23001CS  23218.39345934  .00018783  00000-0  82867-3 0  9999","2 55097  97.4721 278.1049 0015143 181.3932 178.7264 15.21715838 32731","2023-001CS","55097","6878.802","94.630","511.083","490.250","0"
"GENERATED VIA SPACETRACK.ORG API","18 SPCS","55097","SPACEBEE-160","PAYLOAD","U","23001CS","2023-08-07 17:00:21","873600","15.21764894","0.0015267","97.4725","279.4111","176.8987","183.2346","0","999","3293","0.00083165","0.00018879","0","3974470","0 SPACEBEE-160","1 55097U 23001CS  23219.70858650  .00018879  00000-0  83165-3 0  9997","2 55097  97.4725 279.4111 0015267 176.8987 183.2346 15.21764894 32935","2023-001CS","55097","6878.654","94.627","511.021","490.017","0"
"GENERATED VIA SPACETRACK.ORG API","18 SPCS","55097","SPACEBEE-160","PAYLOAD","U","23001CS","2023-08-08 10:21:54","998784","15.21800052","0.0015281","97.4724","280.1295","174.4052","185.7357","0","999","3304","0.0010484","0.00023858","0","3975339","0 SPACEBEE-160","1 55097U 23001CS  23220.43188656  .00023858  00000-0  10484-2 0  9997","2 55097  97.4724 280.1295 0015281 174.4052 185.7357 15.21800052 33048","2023-001CS","55097","6878.548","94.625","510.924","489.902","0"
